{
  "type": "FeatureCollection",
  "features": [
    {
      "type": "Feature",
      "properties": {
        "norad_id": 36585,
        "name": "GPS BIIF-1  (PRN 25)",
        "group": "gnss",
        "lat": -1.1162762866972304,
        "lon": -144.70962748008225,
        "alt_km": 20045.860970880993,
        "timestamp": "2025-12-12T11:38:31.653702+00:00",
        "meta_object_name": "GPS BIIF-1  (PRN 25)",
        "meta_object_id": "2010-022A",
        "meta_epoch": "2025-12-11T07:42:38.318112",
        "meta_mean_motion": 2.00553138,
        "meta_eccentricity": 0.0126045,
        "meta_inclination": 54.3003,
        "meta_ra_of_asc_node": 216.1311,
        "meta_arg_of_pericenter": 65.0548,
        "meta_mean_anomaly": 174.6737,
        "meta_ephemeris_type": 0,
        "meta_classification_type": "U",
        "meta_norad_cat_id": 36585,
        "meta_element_set_no": 999,
        "meta_rev_at_epoch": 11382,
        "meta_bstar": 0,
        "meta_mean_motion_dot": 1.4e-07,
        "meta_mean_motion_ddot": 0,
        "tle_line1": "1 36585U 10022A   25345.32127683  .00000014  00000+0  00000+0 0  9996",
        "tle_line2": "2 36585  54.3003 216.1311 0126045  65.0548 174.6737  2.00553138113822"
      },
      "geometry": {
        "type": "Point",
        "coordinates": [
          -144.70962748008225,
          -1.1162762866972304
        ]
      }
    },
    {
      "type": "Feature",
      "properties": {
        "norad_id": 36828,
        "name": "BEIDOU-2 IGSO-1 (C06)",
        "group": "gnss",
        "lat": -15.437395559763479,
        "lon": -3.8851265640703887,
        "alt_km": 35580.88147008317,
        "timestamp": "2025-12-12T11:38:31.653714+00:00",
        "meta_object_name": "BEIDOU-2 IGSO-1 (C06)",
        "meta_object_id": "2010-036A",
        "meta_epoch": "2025-12-11T21:55:21.552960",
        "meta_mean_motion": 1.00276302,
        "meta_eccentricity": 0.0051169,
        "meta_inclination": 54.2856,
        "meta_ra_of_asc_node": 164.6546,
        "meta_arg_of_pericenter": 215.8043,
        "meta_mean_anomaly": 137.1278,
        "meta_ephemeris_type": 0,
        "meta_classification_type": "U",
        "meta_norad_cat_id": 36828,
        "meta_element_set_no": 999,
        "meta_rev_at_epoch": 5621,
        "meta_bstar": 0,
        "meta_mean_motion_dot": -4.7e-07,
        "meta_mean_motion_ddot": 0,
        "tle_line1": "1 36828U 10036A   25345.91344390 -.00000047  00000+0  00000+0 0  9999",
        "tle_line2": "2 36828  54.2856 164.6546 0051169 215.8043 137.1278  1.00276302 56210"
      },
      "geometry": {
        "type": "Point",
        "coordinates": [
          -3.8851265640703887,
          -15.437395559763479
        ]
      }
    },
    {
      "type": "Feature",
      "properties": {
        "norad_id": 37210,
        "name": "BEIDOU-2 G4 (C04)",
        "group": "gnss",
        "lat": -0.7391658975987269,
        "lon": 56.20437388350775,
        "alt_km": 35828.24279971599,
        "timestamp": "2025-12-12T11:38:31.653726+00:00",
        "meta_object_name": "BEIDOU-2 G4 (C04)",
        "meta_object_id": "2010-057A",
        "meta_epoch": "2025-12-12T03:58:13.304064",
        "meta_mean_motion": 1.00271452,
        "meta_eccentricity": 0.0010894,
        "meta_inclination": 3.1836,
        "meta_ra_of_asc_node": 69.9405,
        "meta_arg_of_pericenter": 190.7515,
        "meta_mean_anomaly": 40.0526,
        "meta_ephemeris_type": 0,
        "meta_classification_type": "U",
        "meta_norad_cat_id": 37210,
        "meta_element_set_no": 999,
        "meta_rev_at_epoch": 5541,
        "meta_bstar": 0,
        "meta_mean_motion_dot": -1.03e-06,
        "meta_mean_motion_ddot": 0,
        "tle_line1": "1 37210U 10057A   25346.16543176 -.00000103  00000+0  00000+0 0  9992",
        "tle_line2": "2 37210   3.1836  69.9405 0010894 190.7515  40.0526  1.00271452 55413"
      },
      "geometry": {
        "type": "Point",
        "coordinates": [
          56.20437388350775,
          -0.7391658975987269
        ]
      }
    },
    {
      "type": "Feature",
      "properties": {
        "norad_id": 37256,
        "name": "BEIDOU-2 IGSO-2 (C07)",
        "group": "gnss",
        "lat": 47.91388006558967,
        "lon": 2.740652354311373,
        "alt_km": 35901.06577336847,
        "timestamp": "2025-12-12T11:38:31.653739+00:00",
        "meta_object_name": "BEIDOU-2 IGSO-2 (C07)",
        "meta_object_id": "2010-068A",
        "meta_epoch": "2025-12-03T17:22:36.027840",
        "meta_mean_motion": 1.0028872,
        "meta_eccentricity": 0.00492449,
        "meta_inclination": 47.9042,
        "meta_ra_of_asc_node": 274.2614,
        "meta_arg_of_pericenter": 216.1411,
        "meta_mean_anomaly": 310.24,
        "meta_ephemeris_type": 0,
        "meta_classification_type": "U",
        "meta_norad_cat_id": 37256,
        "meta_element_set_no": 999,
        "meta_rev_at_epoch": 5483,
        "meta_bstar": 0,
        "meta_mean_motion_dot": -2.25e-06,
        "meta_mean_motion_ddot": 0,
        "tle_line1": "1 37256U 10068A   25337.72402810 -.00000225  00000+0  00000+0 0  9990",
        "tle_line2": "2 37256  47.9042 274.2614 0049244 216.1411 310.2400  1.00288720 54834"
      },
      "geometry": {
        "type": "Point",
        "coordinates": [
          2.740652354311373,
          47.91388006558967
        ]
      }
    },
    {
      "type": "Feature",
      "properties": {
        "norad_id": 37384,
        "name": "BEIDOU-2 IGSO-3 (C08)",
        "group": "gnss",
        "lat": -33.04236566599784,
        "lon": 21.855386103658994,
        "alt_km": 35895.28815896842,
        "timestamp": "2025-12-12T11:38:31.653753+00:00",
        "meta_object_name": "BEIDOU-2 IGSO-3 (C08)",
        "meta_object_id": "2011-013A",
        "meta_epoch": "2025-12-11T15:37:03.975744",
        "meta_mean_motion": 1.00271037,
        "meta_eccentricity": 0.00354451,
        "meta_inclination": 62.1431,
        "meta_ra_of_asc_node": 41.9258,
        "meta_arg_of_pericenter": 187.4472,
        "meta_mean_anomaly": 193.0762,
        "meta_ephemeris_type": 0,
        "meta_classification_type": "U",
        "meta_norad_cat_id": 37384,
        "meta_element_set_no": 999,
        "meta_rev_at_epoch": 5378,
        "meta_bstar": 0,
        "meta_mean_motion_dot": -1.96e-06,
        "meta_mean_motion_ddot": 0,
        "tle_line1": "1 37384U 11013A   25345.65074046 -.00000196  00000+0  00000+0 0  9997",
        "tle_line2": "2 37384  62.1431  41.9258 0035445 187.4472 193.0762  1.00271037 53789"
      },
      "geometry": {
        "type": "Point",
        "coordinates": [
          21.855386103658994,
          -33.04236566599784
        ]
      }
    },
    {
      "type": "Feature",
      "properties": {
        "norad_id": 37605,
        "name": "GSAT-8 (GAGAN/PRN 127)",
        "group": "gnss",
        "lat": -1.2154426846030142,
        "lon": -48.80369774111937,
        "alt_km": 35759.40371132041,
        "timestamp": "2025-12-12T11:38:31.653765+00:00",
        "meta_object_name": "GSAT-8 (GAGAN/PRN 127)",
        "meta_object_id": "2011-022A",
        "meta_epoch": "2025-12-12T03:28:14.570976",
        "meta_mean_motion": 1.00271077,
        "meta_eccentricity": 0.0008776,
        "meta_inclination": 1.6487,
        "meta_ra_of_asc_node": 84.1935,
        "meta_arg_of_pericenter": 183.6973,
        "meta_mean_anomaly": 280.3453,
        "meta_ephemeris_type": 0,
        "meta_classification_type": "U",
        "meta_norad_cat_id": 37605,
        "meta_element_set_no": 999,
        "meta_rev_at_epoch": 5134,
        "meta_bstar": 0,
        "meta_mean_motion_dot": 9.4e-07,
        "meta_mean_motion_ddot": 0,
        "tle_line1": "1 37605U 11022A   25346.14461309  .00000094  00000+0  00000+0 0  9996",
        "tle_line2": "2 37605   1.6487  84.1935 0008776 183.6973 280.3453  1.00271077 51347"
      },
      "geometry": {
        "type": "Point",
        "coordinates": [
          -48.80369774111937,
          -1.2154426846030142
        ]
      }
    },
    {
      "type": "Feature",
      "properties": {
        "norad_id": 37763,
        "name": "BEIDOU-2 IGSO-4 (C09)",
        "group": "gnss",
        "lat": -1.5189395050719012,
        "lon": -11.574155350499046,
        "alt_km": 35361.24977414076,
        "timestamp": "2025-12-12T11:38:31.653777+00:00",
        "meta_object_name": "BEIDOU-2 IGSO-4 (C09)",
        "meta_object_id": "2011-038A",
        "meta_epoch": "2025-12-10T12:04:03.489024",
        "meta_mean_motion": 1.00284678,
        "meta_eccentricity": 0.01490344,
        "meta_inclination": 54.5829,
        "meta_ra_of_asc_node": 167.3658,
        "meta_arg_of_pericenter": 230.2355,
        "meta_mean_anomaly": 317.2212,
        "meta_ephemeris_type": 0,
        "meta_classification_type": "U",
        "meta_norad_cat_id": 37763,
        "meta_element_set_no": 999,
        "meta_rev_at_epoch": 5275,
        "meta_bstar": 0,
        "meta_mean_motion_dot": 3.6e-07,
        "meta_mean_motion_ddot": 0,
        "tle_line1": "1 37763U 11038A   25344.50281816  .00000036  00000+0  00000+0 0  9995",
        "tle_line2": "2 37763  54.5829 167.3658 0149034 230.2355 317.2212  1.00284678 52751"
      },
      "geometry": {
        "type": "Point",
        "coordinates": [
          -11.574155350499046,
          -1.5189395050719012
        ]
      }
    }
  ]
}